OBJECT_NAME,OBJECT_ID,EPOCH,MEAN_MOTION,ECCENTRICITY,INCLINATION,RA_OF_ASC_NODE,ARG_OF_PERICENTER,MEAN_ANOMALY,EPHEMERIS_TYPE,CLASSIFICATION_TYPE,NORAD_CAT_ID,ELEMENT_SET_NO,REV_AT_EPOCH,BSTAR,MEAN_MOTION_DOT,MEAN_MOTION_DDOT
WGS F6 (USA 244),2013-041A,2026-06-27T11:58:38.784000,1.00273179,.0000493,0.0182,13.1569,160.5043,146.4112,0,U,39222,999,4616,0,.1E-5,0
ES'HAIL 1,2013-044A,2026-06-27T12:37:22.556064,1.00274318,.0002254,0.0494,15.4913,78.4852,36.4847,0,U,39233,999,4673,0,.155E-5,0
GSAT-7,2013-044B,2026-06-27T11:08:52.495008,1.00271894,.0002591,0.1086,91.6988,187.1682,237.8757,0,U,39234,999,4536,0,-.65E-6,0
AMOS-4,2013-045A,2026-06-27T11:06:15.246144,1.00271137,.0002124,0.0390,69.4961,16.4757,61.1549,0,U,39237,999,4706,0,0,0
AEHF-3 (USA 246),2013-050A,2026-06-27T09:30:38.478816,1.00275138,.0088047,5.3180,67.0917,188.0290,38.8409,0,U,39256,999,4575,0,.35E-6,0
ASTRA 2E,2013-056A,2026-06-27T12:38:29.948064,1.00271265,.0002547,0.0614,331.4693,132.8490,29.4202,0,U,39285,999,4652,0,.162E-5,0
FM-6,2013-058A,2026-06-27T11:57:10.027008,1.00270900,.0001663,0.0169,45.6124,135.3473,157.6340,0,U,39360,999,4617,0,-.4E-7,0
RADUGA-1M 3,2013-062A,2026-06-26T07:35:11.891040,1.00274072,.0001552,5.9810,72.2401,278.9664,72.0224,0,U,39375,999,4619,0,.158E-5,0
SES-8,2013-071A,2026-06-27T03:19:38.910720,1.00271179,.0003078,0.0321,279.6169,174.6635,325.8872,0,U,39460,999,4452,0,-.258E-5,0
INMARSAT 5-F1,2013-073A,2026-06-27T02:32:18.007872,1.00251584,.000184,0.0183,15.2670,333.5538,27.0960,0,U,39476,999,4567,0,.43E-6,0
TKSAT-1 (TUPAC KATARI),2013-075A,2026-06-27T12:05:31.725024,1.00272243,.000285,0.0478,169.6148,278.6906,281.5022,0,U,39481,999,4570,0,-.183E-5,0
EXPRESS-AM5,2013-077A,2026-06-26T20:03:45.254880,1.00269983,.00003265,0.0139,300.2252,83.8506,331.8470,0,U,39487,999,4645,0,-.269E-5,0
GSAT-14,2014-001A,2026-06-27T11:08:52.495008,1.00272294,.0000638,0.0597,93.6426,132.9987,290.1364,0,U,39498,999,4548,0,-.65E-6,0
THAICOM 6,2014-002A,2026-06-27T11:10:07.375296,1.00271487,.0004702,0.0531,119.1541,353.5945,48.8835,0,U,39500,999,4556,0,-.11E-5,0
TDRS 12,2014-004A,2026-06-27T12:18:37.970208,1.00279744,.00032,3.9871,19.2659,205.0451,194.8348,0,U,39504,999,4438,0,-.262E-5,0
ABS-2,2014-006A,2026-06-27T11:09:07.469856,1.00272129,.0004015,0.0170,25.5739,55.6467,76.5469,0,U,39508,999,4538,0,-.74E-6,0
ATHENA-FIDUS,2014-006B,2026-06-27T12:41:07.196064,1.00270568,.0001658,0.0149,75.8132,26.0432,41.8612,0,U,39509,999,4519,0,.166E-5,0
TURKSAT 4A,2014-007A,2026-06-27T04:09:02.810880,1.00272613,.00005347,0.0519,296.4435,358.0771,85.0136,0,U,39522,999,4506,0,.158E-5,0
EXPRESS-AT1,2014-010A,2026-06-27T12:48:28.990368,1.00306776,.0004403,0.2847,85.6375,42.8919,42.8049,0,U,39612,999,4492,0,.24E-6,0
EXPRESS-AT2,2014-010B,2026-06-27T11:03:45.484704,1.00269786,.0000563,0.0192,329.8190,28.7195,138.9653,0,U,39613,999,4460,0,.91E-6,0
AMAZONAS 4A,2014-011A,2026-06-27T12:09:16.365888,1.00271146,.0004388,0.0617,165.3553,311.0807,267.5000,0,U,39616,999,4481,0,-.241E-5,0
ASTRA 5B,2014-011B,2026-06-27T12:37:07.580352,1.00272872,.0002212,0.0522,326.6148,114.4311,47.3410,0,U,39617,999,4477,0,.149E-5,0
IRNSS-1B,2014-017A,2026-06-26T17:56:55.510080,1.00269902,.00235518,28.9068,240.2389,196.9483,161.9840,0,U,39635,999,4488,0,.145E-5,0
LUCH-5V,2014-023A,2026-06-27T02:41:32.123904,1.00271863,.00024945,5.1575,69.6499,49.8207,290.8987,0,U,39727,999,4445,0,-.262E-5,0
KAZSAT-3,2014-023B,2026-06-27T11:04:22.926144,1.00271809,.0000362,0.0081,1.7522,77.4476,60.9683,0,U,39728,999,4256,0,.72E-6,0
EUTELSAT 3B,2014-030A,2026-06-27T09:05:58.082208,1.00270877,.0004271,0.0600,354.8501,98.8508,321.3715,0,U,39773,999,4416,0,.31E-6,0
ASIASAT 8 (AMOS-7),2014-046A,2026-06-27T09:35:08.072736,1.00269859,.0001763,0.0430,79.4585,25.8288,59.3046,0,U,40107,999,10225,0,-.321E-5,0
ASIASAT 6,2014-052A,2026-06-27T10:00:38.734272,1.00273635,.0000881,0.0425,268.6381,188.3079,88.6462,0,U,40141,999,4318,0,-.35E-5,0
OPTUS 10,2014-054A,2026-06-27T11:49:38.537760,1.00270964,.0002164,0.0505,65.1100,30.5883,153.3289,0,U,40146,999,4313,0,-.135E-5,0
MEASAT-3B,2014-054B,2026-06-27T02:40:32.219328,1.00270134,.00029249,0.0448,49.0181,20.9198,336.9256,0,U,40147,999,4300,0,-.23E-5,0
HIMAWARI-8,2014-060A,2026-06-27T13:13:38.502912,1.00274001,.0001118,0.0114,323.6169,129.3362,161.7727,0,U,40267,999,4286,0,-.263E-5,0
IRNSS-1C,2014-061A,2026-06-26T19:47:24.321120,1.00275377,.0022153,6.5413,88.7480,4.7064,201.2419,0,U,40269,999,4278,0,-.156E-5,0
INTELSAT 30 (IS-30),2014-062A,2026-06-27T06:55:19.144992,1.00271048,.0001527,0.0235,49.7457,347.5431,246.8893,0,U,40271,999,689,0,-.139E-5,0
ARSAT 1,2014-062B,2026-06-27T12:09:53.807328,1.00272094,.0002131,0.0165,331.1245,118.9762,296.1896,0,U,40272,999,4272,0,-.248E-5,0
EUTELSAT 53A,2014-064A,2026-06-26T23:04:16.733856,1.00267050,.0001292,0.0167,327.6357,210.8263,135.6851,0,U,40277,999,4166,0,.11E-5,0
GSAT-16,2014-078A,2026-06-27T11:03:30.508992,1.00274130,.0008077,0.0569,267.0436,177.6679,51.8079,0,U,40332,999,4221,0,.96E-6,0
DIRECTV 14,2014-078B,2026-06-27T12:02:02.059872,1.00270970,.0000253,0.0109,23.0135,21.8592,312.0088,0,U,40333,999,4214,0,-.114E-5,0
YAMAL 401,2014-082A,2026-06-26T02:42:57.812832,1.00270329,.0000876,0.0083,315.9701,157.5653,291.3942,0,U,40345,999,4200,0,-.217E-5,0
ASTRA 2G,2014-089A,2026-06-27T12:38:22.458912,1.00273951,.0004784,0.0496,337.0544,102.9076,53.4525,0,U,40364,999,4207,0,.162E-5,0
FENGYUN 2G,2014-090A,2026-06-26T16:26:53.974752,1.00269056,.00035792,5.6634,72.7057,150.4754,37.9966,0,U,40367,999,4209,0,-.296E-5,0
MUOS-3,2015-002A,2026-06-27T09:00:43.582752,1.00270864,.0052597,4.5397,43.5634,177.7858,173.8619,0,U,40374,999,4168,0,-.121E-5,0
INMARSAT 5-F2,2015-005A,2026-06-27T10:32:02.409792,1.00271877,.0000454,0.0184,10.5740,68.2761,299.6991,0,U,40384,999,4109,0,-.274E-5,0
ABS-3A,2015-010A,2026-06-27T09:04:13.247904,1.00270743,.0001713,0.0434,54.6167,356.0582,357.8883,0,U,40424,999,4147,0,0,0
EUTELSAT 115 WEST B,2015-010B,2026-06-27T10:14:56.548032,1.00270125,.0000386,0.0091,147.4180,93.1709,73.7876,0,U,40425,999,4148,0,-.13E-6,0
EXPRESS-AM7,2015-012A,2026-06-27T12:41:44.635776,1.00269760,.0003213,0.0173,345.4053,115.1956,45.4701,0,U,40505,999,4111,0,.162E-5,0
BEIDOU-3S IGSO-1S,2015-019A,2026-06-26T16:41:18.216672,1.00249401,.0039049,49.1760,295.3462,191.6970,128.6573,0,U,40549,999,4116,0,-.17E-5,0
THOR 7,2015-022A,2026-06-27T07:22:16.560768,1.00271831,.0002681,0.0217,102.2093,349.4660,293.6481,0,U,40613,999,4091,0,.3E-7,0
TURKMENALEM52E/MONACOSAT,2015-023A,2026-06-27T11:02:38.091840,1.00270060,.0003058,0.0242,70.8280,15.7181,46.7060,0,U,40617,999,4095,0,.116E-5,0
DIRECTV 15,2015-026A,2026-06-27T08:35:45.976128,1.00271717,.0000463,0.0172,59.5640,14.4630,227.5098,0,U,40663,999,4056,0,-.91E-6,0
SKY MEXICO-1,2015-026B,2026-06-27T12:07:53.999040,1.00271947,.000261,0.0165,347.2512,125.8998,265.6410,0,U,40664,999,4055,0,-.223E-5,0
METEOSAT-11 (MSG-4),2015-034A,2026-06-27T07:25:08.787072,1.00266237,.0002246,3.2259,71.0472,347.5065,337.5709,0,U,40732,999,731,0,.7E-6,0
STAR ONE C4,2015-034B,2026-06-27T07:55:39.946080,1.00270898,.0002171,0.0247,333.9203,96.2736,254.1721,0,U,40733,999,4011,0,-.253E-5,0
WGS F7 (USA 263),2015-036A,2026-06-27T11:29:05.049888,1.00270520,.0000998,0.0426,56.1700,131.5946,75.0579,0,U,40746,999,3997,0,0,0
INTELSAT 34 (IS-34),2015-039A,2026-06-27T10:31:54.923232,1.00274669,.0000588,0.0112,3.8798,37.0581,337.0938,0,U,40874,999,3973,0,-.274E-5,0
EUTELSAT 8 WEST B,2015-039B,2026-06-27T10:45:08.654112,1.00271690,.0003753,0.0634,8.6637,83.8789,336.2988,0,U,40875,999,3976,0,-.54E-6,0
GSAT-6,2015-041A,2026-06-27T11:11:14.767296,1.00270601,.0003113,1.9450,82.4684,6.6612,76.7844,0,U,40880,999,3970,0,-.15E-5,0
INMARSAT 5-F3,2015-042A,2026-06-27T11:32:12.460992,1.00268809,.0000639,0.0191,20.1047,105.4192,142.7094,0,U,40882,999,3967,0,.61E-6,0
MUOS-4,2015-044A,2026-06-27T04:18:31.901760,1.00272368,.00578044,4.3482,42.3052,2.9903,9.6129,0,U,40887,999,3966,0,-.85E-6,0
TJS-1,2015-046A,2026-06-27T11:52:38.452800,1.00270690,.0005934,0.3496,84.9100,5.7112,158.1698,0,U,40892,999,3967,0,-.145E-5,0
EXPRESS-AM8,2015-048A,2026-06-26T15:54:29.007072,1.00271665,.00004108,0.0168,328.7711,85.7051,84.9254,0,U,40895,999,3944,0,-.1E-5,0
BEIDOU-3S IGSO-2S,2015-053A,2026-06-26T16:25:46.582752,1.00257789,.00655228,49.2053,258.6677,192.9538,164.2588,0,U,40938,999,3944,0,-.116E-5,0
SKY MUSTER 1 (NBN1A),2015-054A,2026-06-27T13:13:38.502912,1.00272534,.0001923,0.0191,334.0875,116.5626,163.6714,0,U,40940,999,3936,0,-.267E-5,0
ARSAT 2,2015-054B,2026-06-27T12:07:16.556736,1.00272270,.0002258,0.0112,344.7536,100.8053,290.8765,0,U,40941,999,3940,0,-.213E-5,0
MORELOS 3,2015-056A,2026-06-27T11:58:09.929856,1.00272467,.0000559,3.1952,15.3350,0.8219,325.8938,0,U,40946,999,3938,0,-.34E-6,0
APSTAR-9,2015-059A,2026-06-27T13:13:38.503776,1.00273915,.0002696,0.0307,309.0421,227.9274,79.0988,0,U,40982,999,3922,0,-.254E-5,0
TURKSAT 4B,2015-060A,2026-06-27T04:11:17.595744,1.00272446,.00024992,0.0129,50.0914,41.6425,296.3204,0,U,40984,999,3919,0,.127E-5,0
ZHONGXING-2C,2015-063A,2026-06-27T13:54:12.732192,1.00274129,.0007597,0.3009,89.3760,95.2146,43.0880,0,U,41021,999,3908,0,-.313E-5,0
GSAT-15,2015-065A,2026-06-27T11:14:21.966720,1.00270896,.0004603,0.0482,263.4087,173.8537,100.4260,0,U,41028,999,3890,0,-.246E-5,0
BADR-7 (ARABSAT-6B),2015-065B,2026-06-27T07:29:45.844224,1.00273388,.0003968,0.0179,251.7644,303.3143,218.7634,0,U,41029,999,3886,0,.156E-5,0
LAOSAT 1,2015-067A,2026-06-27T13:21:38.683008,1.00271172,.0002597,0.0524,208.8459,203.6550,192.0832,0,U,41034,999,3896,0,-.331E-5,0
TELSTAR 12V,2015-068A,2026-06-27T10:43:23.822400,1.00271314,.0002532,0.0189,337.6841,109.1646,334.5645,0,U,41036,999,3872,0,-.107E-5,0
ELEKTRO-L 2,2015-074A,2026-06-25T22:47:48.794784,1.00271163,.00007276,6.7170,70.4166,286.6211,244.4527,0,U,41105,999,3859,0,-.113E-5,0
COSMOS 2513,2015-075A,2026-06-26T07:47:40.693920,1.00270544,.0003503,0.0753,102.3543,334.7437,34.5259,0,U,41121,999,3864,0,-.127E-5,0
